[Satellite]
VERSION=1.1
NAME=CHINASAT 12 (ZX 12)
NICKNAME=CHINASAT 12 (ZX 12)
TLE1=1 39017U 12067A   17186.06349032 -.00000211  00000-0  00000-0 0  9991
TLE2=2 39017   0.0254  28.1265 0003219  78.7099 286.7673  1.00268978 16931
